[{"OBJECT_NAME":"STARLINK-34608","OBJECT_ID":"2025-150W","EPOCH":"2026-03-09T13:59:09.467808","MEAN_MOTION":14.98326574,"ECCENTRICITY":0.0003269,"INCLINATION":70.002,"RA_OF_ASC_NODE":134.6149,"ARG_OF_PERICENTER":266.7801,"MEAN_ANOMALY":93.2984,"EPHEMERIS_TYPE":0,"CLASSIFICATION_TYPE":"U","NORAD_CAT_ID":64810,"ELEMENT_SET_NO":999,"REV_AT_EPOCH":3650,"BSTAR":0.0002357,"MEAN_MOTION_DOT":2.72e-5,"MEAN_MOTION_DDOT":0},{"OBJECT_NAME":"COSMOS 2228","OBJECT_ID":"1992-094A","EPOCH":"2026-03-09T22:06:22.986432","MEAN_MOTION":14.97191104,"ECCENTRICITY":0.00167811,"INCLINATION":82.5157,"RA_OF_ASC_NODE":237.0886,"ARG_OF_PERICENTER":303.9293,"MEAN_ANOMALY":56.0333,"EPHEMERIS_TYPE":0,"CLASSIFICATION_TYPE":"U","NORAD_CAT_ID":22286,"ELEMENT_SET_NO":999,"REV_AT_EPOCH":77609,"BSTAR":0.0002463535,"MEAN_MOTION_DOT":2.881e-5,"MEAN_MOTION_DDOT":0}]
